NORAD_CAT_ID,OBJECT_NAME,OBJECT_TYPE,EPOCH,MEAN_MOTION,ECCENTRICITY,INCLINATION,RA_OF_ASC_NODE,ARG_OF_PERICENTER,MEAN_ANOMALY,BSTAR,MEAN_MOTION_DOT,MEAN_MOTION_DDOT,TLE_LINE0,TLE_LINE1,TLE_LINE2,SEMIMAJOR_AXIS,PERIOD,APOGEE,PERIGEE,DECAYED
54810.0,STARLINK-5408,PAYLOAD,2023-08-15 10:23:22,15.08840329,0.0001458,53.2167,271.7602,91.3273,268.7886,1.0634e-05,-1.19e-06,0.0,0 STARLINK-5408,1 54810U 22175BE  23227.43290297 -.00000119  00000-0  10634-4 0  9997,2 54810  53.2167 271.7602 0001458  91.3273 268.7886 15.08840329 36545,6917.879,95.438,540.753,538.736,0.0
54810.0,STARLINK-5408,PAYLOAD,2023-08-16 02:17:14,15.08832101,0.0001338,53.2161,268.7875,87.7544,272.3601,2.2683e-05,7.3e-07,0.0,0 STARLINK-5408,1 54810U 22175BE  23228.09530840  .00000073  00000-0  22683-4 0  9996,2 54810  53.2161 268.7875 0001338  87.7544 272.3601 15.08832101 36640,6917.905,95.438,540.695,538.844,0.0
54810.0,STARLINK-5408,PAYLOAD,2023-08-17 10:04:57,15.08839175,0.000139,53.2158,262.8401,84.3938,275.7212,7.1774e-06,-1.74e-06,0.0,0 STARLINK-5408,1 54810U 22175BE  23229.42010743 -.00000174  00000-0  71774-5 0  9998,2 54810  53.2158 262.8401 0001390  84.3938 275.7212 15.08839175 36849,6917.883,95.438,540.709,538.786,0.0
54810.0,STARLINK-5408,PAYLOAD,2023-08-18 13:06:30,15.08843797,0.0001423,53.2157,257.7846,83.7655,276.3499,5.4739e-05,5.83e-06,0.0,0 STARLINK-5408,1 54810U 22175BE  23230.54618231  .00000583  00000-0  54739-4 0  9993,2 54810  53.2157 257.7846 0001423  83.7655 276.3499 15.08843797 37019,6917.869,95.437,540.718,538.749,0.0
54810.0,STARLINK-5408,PAYLOAD,2023-08-18 19:28:03,15.08836822,0.0001473,53.2159,256.595,83.2386,276.8774,7.6141e-06,-1.67e-06,0.0,0 STARLINK-5408,1 54810U 22175BE  23230.81114804 -.00000167  00000-0  76141-5 0  9991,2 54810  53.2159 256.5950 0001473  83.2386 276.8774 15.08836822 37051,6917.89,95.438,540.774,538.736,0.0
54810.0,STARLINK-5408,PAYLOAD,2023-08-20 01:40:23,15.08831105,0.0001399,53.2154,250.9452,88.1913,271.9239,-3.6479e-05,-8.68e-06,0.0,0 STARLINK-5408,1 54810U 22175BE  23232.06971363 -.00000868  00000-0 -36479-4 0  9999,2 54810  53.2154 250.9452 0001399  88.1913 271.9239 15.08831105 37240,6917.908,95.438,540.74,538.805,0.0
54810.0,STARLINK-5408,PAYLOAD,2023-08-20 12:48:04,15.08836377,0.0001486,53.2159,248.863,101.7703,258.3456,-2.4133e-05,-6.72e-06,0.0,0 STARLINK-5408,1 54810U 22175BE  23232.53339063 -.00000672  00000-0 -24133-4 0  9993,2 54810  53.2159 248.8630 0001486 101.7703 258.3456 15.08836377 37319,6917.891,95.438,540.784,538.728,0.0
54810.0,STARLINK-5408,PAYLOAD,2023-08-21 07:52:42,15.0884208,0.0001435,53.2155,245.2954,89.6401,270.4756,4.9985e-05,5.08e-06,0.0,0 STARLINK-5408,1 54810U 22175BE  23233.32826504  .00000508  00000-0  49985-4 0  9990,2 54810  53.2155 245.2954 0001435  89.6401 270.4756 15.08842080 37437,6917.874,95.437,540.732,538.746,0.0
54810.0,STARLINK-5408,PAYLOAD,2023-08-22 04:32:43,15.08833655,0.0001486,53.2154,241.4282,99.9857,260.1302,1.5923e-08,-2.88e-06,0.0,0 STARLINK-5408,1 54810U 22175BE  23234.18939302 -.00000288  00000-0  15923-7 0  9990,2 54810  53.2154 241.4282 0001486  99.9857 260.1302 15.08833655 37568,6917.9,95.438,540.793,538.737,0.0
54810.0,STARLINK-5408,PAYLOAD,2023-08-23 09:09:40,15.08836835,0.000138,53.2155,236.0763,88.006,272.109,-4.7969e-05,-1.051e-05,0.0,0 STARLINK-5408,1 54810U 22175BE  23235.38171558 -.00001051  00000-0 -47969-4 0  9996,2 54810  53.2155 236.0763 0001380  88.0060 272.1090 15.08836835 37741,6917.89,95.438,540.71,538.8,0.0
54810.0,STARLINK-5408,PAYLOAD,2023-08-24 09:00:26,15.08840429,0.0001358,53.2155,231.6155,90.5287,269.5861,5.2066e-05,5.41e-06,0.0,0 STARLINK-5408,1 54810U 22175BE  23236.37531113  .00000541  00000-0  52066-4 0  9998,2 54810  53.2155 231.6155 0001358  90.5287 269.5861 15.08840429 40059,6917.879,95.438,540.684,538.805,0.0
54810.0,STARLINK-5408,PAYLOAD,2023-08-25 05:40:28,15.08838503,0.0001493,53.2155,227.7502,85.3251,274.7911,3.3294e-06,-2.35e-06,0.0,0 STARLINK-5408,1 54810U 22175BE  23237.23643563 -.00000235  00000-0  33294-5 0  9991,2 54810  53.2155 227.7502 0001493  85.3251 274.7911 15.08838503 40182,6917.885,95.438,540.783,538.717,0.0
54810.0,STARLINK-5408,PAYLOAD,2023-08-26 10:17:23,15.08844669,0.0001465,53.2156,222.3977,89.5118,270.6042,2.6596e-05,1.35e-06,0.0,0 STARLINK-5408,1 54810U 22175BE  23238.42874989  .00000135  00000-0  26596-4 0  9995,2 54810  53.2156 222.3977 0001465  89.5118 270.6042 15.08844669 40367,6917.866,95.437,540.745,538.718,0.0
54810.0,STARLINK-5408,PAYLOAD,2023-08-27 02:11:13,15.08858591,0.000154,53.2147,219.4284,67.8858,292.2297,0.00016019,2.264e-05,0.0,0 STARLINK-5408,1 54810U 22175BE  23239.09113210  .00002264  00000-0  16019-3 0  9995,2 54810  53.2147 219.4284 0001540  67.8858 292.2297 15.08858591 38301,6917.824,95.436,540.754,538.623,0.0
54810.0,STARLINK-5408,PAYLOAD,2023-08-27 05:21:59,15.08860291,0.0001491,53.2153,218.8313,73.2893,286.8263,0.00016063,2.271e-05,0.0,0 STARLINK-5408,1 54810U 22175BE  23239.22360887  .00002271  00000-0  16063-3 0  9991,2 54810  53.2153 218.8313 0001491  73.2893 286.8263 15.08860291 40483,6917.818,95.436,540.715,538.652,0.0
54810.0,STARLINK-5408,PAYLOAD,2023-08-28 02:02:02,15.08836224,0.0001279,53.2168,214.9654,80.6441,279.4696,-0.00013996,-2.514e-05,0.0,0 STARLINK-5408,1 54810U 22175BE  23240.08475429 -.00002514  00000-0 -13996-3 0  9990,2 54810  53.2168 214.9654 0001279  80.6441 279.4696 15.08836224 38450,6917.892,95.438,540.642,538.872,0.0
54810.0,STARLINK-5408,PAYLOAD,2023-08-28 21:06:40,15.08834558,0.0001303,53.216,211.3952,95.5544,264.5597,-0.0001932,-3.361e-05,0.0,0 STARLINK-5408,1 54810U 22175BE  23240.87963797 -.00003361  00000-0 -19320-3 0  9995,2 54810  53.2160 211.3952 0001303  95.5544 264.5597 15.08834558 40738,6917.897,95.438,540.663,538.861,0.0
54810.0,STARLINK-5408,PAYLOAD,2023-08-29 06:38:59,15.0883929,0.0001322,53.2161,209.6112,99.345,260.7692,-0.00012441,-2.267e-05,0.0,0 STARLINK-5408,1 54810U 22175BE  23241.27707345 -.00002267  00000-0 -12441-3 0  9996,2 54810  53.2161 209.6112 0001322  99.3450 260.7692 15.08839290 38634,6917.883,95.438,540.662,538.833,0.0
54810.0,STARLINK-5408,PAYLOAD,2023-08-30 01:43:37,15.08822494,0.0001324,53.2164,206.0432,96.4996,263.6147,4.56e-05,4.38e-06,0.0,0 STARLINK-5408,1 54810U 22175BE  23242.07196394  .00000438  00000-0  45600-4 0  9991,2 54810  53.2164 206.0432 0001324  96.4996 263.6147 15.08822494 38756,6917.934,95.439,540.715,538.883,0.0
54810.0,STARLINK-5408,PAYLOAD,2023-08-30 14:26:44,15.0881312,0.0001288,53.2165,203.6652,101.0632,259.0505,-4.044e-05,-9.31e-06,0.0,0 STARLINK-5408,1 54810U 22175BE  23242.60189974 -.00000931  00000-0 -40440-4 0  9993,2 54810  53.2165 203.6652 0001288 101.0632 259.0505 15.08813120 38835,6917.963,95.439,540.719,538.937,0.0
54810.0,STARLINK-5408,PAYLOAD,2023-08-31 20:39:04,15.08825656,8.36e-05,53.2174,198.0155,116.4496,243.6582,1.7341e-05,-1.2e-07,0.0,0 STARLINK-5408,1 54810U 22175BE  23243.86046588 -.00000012  00000-0  17341-4 0  9998,2 54810  53.2174 198.0155 0000836 116.4496 243.6582 15.08825656 41189,6917.924,95.438,540.368,539.211,0.0
54810.0,STARLINK-5408,PAYLOAD,2023-09-01 03:00:35,15.08841749,0.000104,53.2177,196.8264,94.5676,265.5435,0.00014334,1.994e-05,0.0,0 STARLINK-5408,1 54810U 22175BE  23244.12541274  .00001994  00000-0  14334-3 0  9997,2 54810  53.2177 196.8264 0001040  94.5676 265.5435 15.08841749 39068,6917.875,95.437,540.46,539.021,0.0
54810.0,STARLINK-5408,PAYLOAD,2023-09-01 06:11:21,15.08844195,0.0001267,53.2166,196.2312,91.1739,268.9399,0.00013012,1.784e-05,0.0,0 STARLINK-5408,1 54810U 22175BE  23244.25789176  .00001784  00000-0  13012-3 0  9995,2 54810  53.2166 196.2312 0001267  91.1739 268.9399 15.08844195 41245,6917.868,95.437,540.609,538.856,0.0
54810.0,STARLINK-5408,PAYLOAD,2023-09-01 14:08:17,15.08834271,7.46e-05,53.2172,194.7434,108.7795,251.3278,0.00018876,2.717e-05,0.0,0 STARLINK-5408,1 54810U 22175BE  23244.58909295  .00002717  00000-0  18876-3 0  9997,2 54810  53.2172 194.7434 0000746 108.7795 251.3278 15.08834271 41299,6917.898,95.438,540.279,539.247,0.0
54810.0,STARLINK-5408,PAYLOAD,2023-09-01 23:40:35,15.08841598,5.39e-05,53.2159,192.96,106.4877,253.6174,0.00032579,4.901e-05,0.0,0 STARLINK-5408,1 54810U 22175BE  23244.98652440  .00004901  00000-0  32579-3 0  9991,2 54810  53.2159 192.9600 0000539 106.4877 253.6174 15.08841598 41352,6917.876,95.437,540.113,539.368,0.0
54810.0,STARLINK-5408,PAYLOAD,2023-09-02 13:59:03,15.08852216,8.77e-05,53.215,190.2794,115.3487,244.7596,0.00014158,1.967e-05,0.0,0 STARLINK-5408,1 54810U 22175BE  23245.58268024  .00001967  00000-0  14158-3 0  9991,2 54810  53.2150 190.2794 0000877 115.3487 244.7596 15.08852216 39286,6917.843,95.437,540.315,539.101,0.0
54810.0,STARLINK-5408,PAYLOAD,2023-09-02 20:20:36,15.0885304,0.0001806,53.2127,189.092,96.9606,263.1591,-4.3168e-05,-9.75e-06,0.0,0 STARLINK-5408,1 54810U 22175BE  23245.84764772 -.00000975  00000-0 -43168-4 0  9995,2 54810  53.2127 189.0920 0001806  96.9606 263.1591 15.08853040 41488,6917.841,95.437,540.955,538.456,0.0
54810.0,STARLINK-5408,PAYLOAD,2023-09-03 02:42:09,15.0885225,0.0001571,53.2142,187.9021,97.0195,263.0976,-5.2337e-05,-1.121e-05,0.0,0 STARLINK-5408,1 54810U 22175BE  23246.11260605 -.00001121  00000-0 -52337-4 0  9994,2 54810  53.2142 187.9021 0001571  97.0195 263.0976 15.08852250 39360,6917.843,95.437,540.795,538.621,0.0
54810.0,STARLINK-5408,PAYLOAD,2023-09-04 02:32:57,15.08836996,0.0001263,53.2156,183.4437,80.1136,279.9999,-0.0001883,-3.283e-05,0.0,0 STARLINK-5408,1 54810U 22175BE  23247.10621659 -.00003283  00000-0 -18830-3 0  9994,2 54810  53.2156 183.4437 0001263  80.1136 279.9999 15.08836996 39510,6917.89,95.438,540.628,538.881,0.0
54810.0,STARLINK-5408,PAYLOAD,2023-09-04 05:43:43,15.08837871,0.0001226,53.2158,182.849,69.7745,290.3379,-0.00017234,-3.029e-05,0.0,0 STARLINK-5408,1 54810U 22175BE  23247.23869547 -.00003029  00000-0 -17234-3 0  9993,2 54810  53.2158 182.8490 0001226  69.7745 290.3379 15.08837871 41696,6917.887,95.438,540.6,538.904,0.0
